[{"OBJECT_NAME":"QIANFAN-70","OBJECT_ID":"2025-016R","EPOCH":"2026-03-09T21:17:40.322400","MEAN_MOTION":13.50997301,"ECCENTRICITY":0.00175475,"INCLINATION":88.9684,"RA_OF_ASC_NODE":94.0848,"ARG_OF_PERICENTER":85.1805,"MEAN_ANOMALY":275.135,"EPHEMERIS_TYPE":0,"CLASSIFICATION_TYPE":"U","NORAD_CAT_ID":62800,"ELEMENT_SET_NO":999,"REV_AT_EPOCH":5900,"BSTAR":3.5602904e-5,"MEAN_MOTION_DOT":3.5e-7,"MEAN_MOTION_DDOT":0},{"OBJECT_NAME":"DELTA 1 DEB","OBJECT_ID":"1975-052FT","EPOCH":"2026-03-09T18:42:17.360640","MEAN_MOTION":12.9523027,"ECCENTRICITY":0.02626764,"INCLINATION":99.7092,"RA_OF_ASC_NODE":356.4027,"ARG_OF_PERICENTER":285.9259,"MEAN_ANOMALY":132.8826,"EPHEMERIS_TYPE":0,"CLASSIFICATION_TYPE":"U","NORAD_CAT_ID":21498,"ELEMENT_SET_NO":999,"REV_AT_EPOCH":64327,"BSTAR":0.0010545386,"MEAN_MOTION_DOT":3.08e-6,"MEAN_MOTION_DDOT":0}]
